[
    {
        "Altitude(m)": 568384.9768739969,
        "Argument of Periapsis(deg)": 0.006622991110713501,
        "Eccentricity": 0.0,
        "Inclination(deg)": 53.0,
        "Latitude(deg)": -44.50133879571041,
        "Longitude(deg)": -163.3386791727122,
        "Mean Anomaly(deg)": 241.0006928675776,
        "RAAN(deg)": 69.99014336852801,
        "Satellite Name": "Starlink Shell 1 322",
        "Satellite Number": 322,
        "Semi-Major Axis(m)": 6931778.249405717,
        "Time(s)": 190
    },
    {
        "Altitude(m)": 568522.9308680206,
        "Argument of Periapsis(deg)": 0.0069715695902247375,
        "Eccentricity": 0.0,
        "Inclination(deg)": 53.0,
        "Latitude(deg)": -44.83717596323402,
        "Longitude(deg)": -162.6400609746764,
        "Mean Anomaly(deg)": 241.6275240711343,
        "RAAN(deg)": 69.98962459845053,
        "Satellite Name": "Starlink Shell 1 322",
        "Satellite Number": 322,
        "Semi-Major Axis(m)": 6931778.249405717,
        "Time(s)": 200
    },
    {
        "Altitude(m)": 568658.7226599596,
        "Argument of Periapsis(deg)": 0.007320148069735974,
        "Eccentricity": 0.0,
        "Inclination(deg)": 53.0,
        "Latitude(deg)": -45.16813940558569,
        "Longitude(deg)": -161.93288142333157,
        "Mean Anomaly(deg)": 242.25435527469102,
        "RAAN(deg)": 69.98910582837307,
        "Satellite Name": "Starlink Shell 1 322",
        "Satellite Number": 322,
        "Semi-Major Axis(m)": 6931778.249405717,
        "Time(s)": 210
    },
    {
        "Altitude(m)": 568792.2987221476,
        "Argument of Periapsis(deg)": 0.007668726549247212,
        "Eccentricity": 0.0,
        "Inclination(deg)": 53.0,
        "Latitude(deg)": -45.49411750436561,
        "Longitude(deg)": -161.21707008450497,
        "Mean Anomaly(deg)": 242.88118647824777,
        "RAAN(deg)": 69.9885870582956,
        "Satellite Name": "Starlink Shell 1 322",
        "Satellite Number": 322,
        "Semi-Major Axis(m)": 6931778.249405717,
        "Time(s)": 220
    },
    {
        "Altitude(m)": 568923.6063649518,
        "Argument of Periapsis(deg)": 0.00801730502875845,
        "Eccentricity": 0.0,
        "Inclination(deg)": 53.0,
        "Latitude(deg)": -45.814997123011786,
        "Longitude(deg)": -160.4925628057392,
        "Mean Anomaly(deg)": 243.50801768180446,
        "RAAN(deg)": 69.98806828821812,
        "Satellite Name": "Starlink Shell 1 322",
        "Satellite Number": 322,
        "Semi-Major Axis(m)": 6931778.249405717,
        "Time(s)": 230
    },
    {
        "Altitude(m)": 569052.5937599499,
        "Argument of Periapsis(deg)": 0.008365883508269684,
        "Eccentricity": 0.0,
        "Inclination(deg)": 53.0,
        "Latitude(deg)": -46.130663677180436,
        "Longitude(deg)": -159.75930170361775,
        "Mean Anomaly(deg)": 244.13484888536112,
        "RAAN(deg)": 69.98754951814065,
        "Satellite Name": "Starlink Shell 1 322",
        "Satellite Number": 322,
        "Semi-Major Axis(m)": 6931778.249405717,
        "Time(s)": 240
    },
    {
        "Altitude(m)": 569179.2099626514,
        "Argument of Periapsis(deg)": 0.008714461987780921,
        "Eccentricity": 0.0,
        "Inclination(deg)": 53.0,
        "Latitude(deg)": -46.441001213847834,
        "Longitude(deg)": -159.01723667776403,
        "Mean Anomaly(deg)": 244.7616800889179,
        "RAAN(deg)": 69.98703074806318,
        "Satellite Name": "Starlink Shell 1 322",
        "Satellite Number": 322,
        "Semi-Major Axis(m)": 6931778.249405717,
        "Time(s)": 250
    },
    {
        "Altitude(m)": 569303.4049348675,
        "Argument of Periapsis(deg)": 0.009063040467292158,
        "Eccentricity": 0.0,
        "Inclination(deg)": 53.0,
        "Latitude(deg)": -46.74589249952712,
        "Longitude(deg)": -158.26632542431494,
        "Mean Anomaly(deg)": 245.3885112924746,
        "RAAN(deg)": 69.9865119779857,
        "Satellite Name": "Starlink Shell 1 322",
        "Satellite Number": 322,
        "Semi-Major Axis(m)": 6931778.249405717,
        "Time(s)": 260
    },
    {
        "Altitude(m)": 569425.1295666358,
        "Argument of Periapsis(deg)": 0.009411618946803396,
        "Eccentricity": 0.0,
        "Inclination(deg)": 53.0,
        "Latitude(deg)": -47.045219117961814,
        "Longitude(deg)": -157.50653346005447,
        "Mean Anomaly(deg)": 246.0153424960314,
        "RAAN(deg)": 69.98599320790824,
        "Satellite Name": "Starlink Shell 1 322",
        "Satellite Number": 322,
        "Semi-Major Axis(m)": 6931778.249405717,
        "Time(s)": 270
    },
    {
        "Altitude(m)": 569544.3356977389,
        "Argument of Periapsis(deg)": 0.009760197426314633,
        "Eccentricity": 0.0,
        "Inclination(deg)": 53.0,
        "Latitude(deg)": -47.33886157763467,
        "Longitude(deg)": -156.7378356681327,
        "Mean Anomaly(deg)": 246.64217369958806,
        "RAAN(deg)": 69.98547443783076,
        "Satellite Name": "Starlink Shell 1 322",
        "Satellite Number": 322,
        "Semi-Major Axis(m)": 6931778.249405717,
        "Time(s)": 280
    },
    {
        "Altitude(m)": 569660.9761387942,
        "Argument of Periapsis(deg)": 0.01010877590582587,
        "Eccentricity": 0.0,
        "Inclination(deg)": 53.0,
        "Latitude(deg)": -47.62669942941045,
        "Longitude(deg)": -155.96021633739682,
        "Mean Anomaly(deg)": 247.26900490314478,
        "RAAN(deg)": 69.98495566775328,
        "Satellite Name": "Starlink Shell 1 322",
        "Satellite Number": 322,
        "Semi-Major Axis(m)": 6931778.249405717,
        "Time(s)": 290
    },
    {
        "Altitude(m)": 569775.0046918972,
        "Argument of Periapsis(deg)": 0.010457354385337106,
        "Eccentricity": 0.0,
        "Inclination(deg)": 53.0,
        "Latitude(deg)": -47.90861139458216,
        "Longitude(deg)": -155.17366920571345,
        "Mean Anomaly(deg)": 247.89583610670144,
        "RAAN(deg)": 69.98443689767582,
        "Satellite Name": "Starlink Shell 1 322",
        "Satellite Number": 322,
        "Semi-Major Axis(m)": 6931778.249405717,
        "Time(s)": 300
    },
    {
        "Altitude(m)": 569886.3761708428,
        "Argument of Periapsis(deg)": 0.010805932864848343,
        "Eccentricity": 0.0,
        "Inclination(deg)": 53.0,
        "Latitude(deg)": -48.18447550355152,
        "Longitude(deg)": -154.37819901736881,
        "Mean Anomaly(deg)": 248.52266731025816,
        "RAAN(deg)": 69.98391812759834,
        "Satellite Name": "Starlink Shell 1 322",
        "Satellite Number": 322,
        "Semi-Major Axis(m)": 6931778.249405717,
        "Time(s)": 310
    },
    {
        "Altitude(m)": 569995.046420867,
        "Argument of Periapsis(deg)": 0.01115451134435958,
        "Eccentricity": 0.0,
        "Inclination(deg)": 53.0,
        "Latitude(deg)": -48.45416924533049,
        "Longitude(deg)": -153.5738215657245,
        "Mean Anomaly(deg)": 249.14949851381493,
        "RAAN(deg)": 69.98339935752087,
        "Satellite Name": "Starlink Shell 1 322",
        "Satellite Number": 322,
        "Semi-Major Axis(m)": 6931778.249405717,
        "Time(s)": 320
    },
    {
        "Altitude(m)": 570100.9723379302,
        "Argument of Periapsis(deg)": 0.011503089823870818,
        "Eccentricity": 0.0,
        "Inclination(deg)": 53.0,
        "Latitude(deg)": -48.717569727985875,
        "Longitude(deg)": -152.7605637306448,
        "Mean Anomaly(deg)": 249.77632971737165,
        "RAAN(deg)": 69.98288058744339,
        "Satellite Name": "Starlink Shell 1 322",
        "Satellite Number": 322,
        "Semi-Major Axis(m)": 6931778.249405717,
        "Time(s)": 330
    },
    {
        "Altitude(m)": 570204.1118875504,
        "Argument of Periapsis(deg)": 0.011851668303382053,
        "Eccentricity": 0.0,
        "Inclination(deg)": 53.0,
        "Latitude(deg)": -48.974553850086394,
        "Longitude(deg)": -151.93846501991996,
        "Mean Anomaly(deg)": 250.40316092092837,
        "RAAN(deg)": 69.98236181736593,
        "Satellite Name": "Starlink Shell 1 322",
        "Satellite Number": 322,
        "Semi-Major Axis(m)": 6931778.249405717,
        "Time(s)": 340
    },
    {
        "Altitude(m)": 570304.4241231467,
        "Argument of Periapsis(deg)": 0.012200246782893292,
        "Eccentricity": 0.0,
        "Inclination(deg)": 53.0,
        "Latitude(deg)": -49.22499848314657,
        "Longitude(deg)": -151.10757758502407,
        "Mean Anomaly(deg)": 251.02999212448506,
        "RAAN(deg)": 69.98184304728845,
        "Satellite Name": "Starlink Shell 1 322",
        "Satellite Number": 322,
        "Semi-Major Axis(m)": 6931778.249405717,
        "Time(s)": 350
    },
    {
        "Altitude(m)": 570401.8692038846,
        "Argument of Periapsis(deg)": 0.012548825262404526,
        "Eccentricity": 0.0,
        "Inclination(deg)": 53.0,
        "Latitude(deg)": -49.46878066497733,
        "Longitude(deg)": -150.26796621989786,
        "Mean Anomaly(deg)": 251.65682332804172,
        "RAAN(deg)": 69.98132427721097,
        "Satellite Name": "Starlink Shell 1 322",
        "Satellite Number": 322,
        "Semi-Major Axis(m)": 6931778.249405717,
        "Time(s)": 360
    },
    {
        "Altitude(m)": 570496.4084120676,
        "Argument of Periapsis(deg)": 0.012897403741915765,
        "Eccentricity": 0.0,
        "Inclination(deg)": 53.0,
        "Latitude(deg)": -49.705777803766345,
        "Longitude(deg)": -149.41970985121722,
        "Mean Anomaly(deg)": 252.28365453159847,
        "RAAN(deg)": 69.98080550713351,
        "Satellite Name": "Starlink Shell 1 322",
        "Satellite Number": 322,
        "Semi-Major Axis(m)": 6931778.249405717,
        "Time(s)": 370
    }
]